[
  {
    "OBJECT_NAME": "STARLINK-30804",
    "OBJECT_ID": "23166F",
    "EPOCH": "2025-11-11T06:10:59.305440",
    "MEAN_MOTION": 15.30196285,
    "ECCENTRICITY": 0.0001354,
    "INCLINATION": 53.163,
    "RA_OF_ASC_NODE": 49.9405,
    "ARG_OF_PERICENTER": 106.6514,
    "MEAN_ANOMALY": 253.4635,
    "EPHEMERIS_TYPE": 0,
    "CLASSIFICATION_TYPE": "U",
    "NORAD_CAT_ID": 58155,
    "ELEMENT_SET_NO": 999,
    "REV_AT_EPOCH": 11504,
    "BSTAR": 3.6054000000000004e-05,
    "MEAN_MOTION_DOT": 7.09e-06,
    "MEAN_MOTION_DDOT": 0.0,
    "TLE_LINE1": "1 58155U 23166F   25315.25763085  .00000709  00000+0  36054-4 0  9991",
    "TLE_LINE2": "2 58155  53.1630  49.9405 0001354 106.6514 253.4635 15.30196285115040",
    "COMMENT": "Grouped by shell and plane from TLE"
  },
  {
    "OBJECT_NAME": "STARLINK-30784",
    "OBJECT_ID": "23166G",
    "EPOCH": "2025-11-11T06:24:39.561984",
    "MEAN_MOTION": 15.30204731,
    "ECCENTRICITY": 0.0001274,
    "INCLINATION": 53.1623,
    "RA_OF_ASC_NODE": 49.9927,
    "ARG_OF_PERICENTER": 82.1997,
    "MEAN_ANOMALY": 277.9148,
    "EPHEMERIS_TYPE": 0,
    "CLASSIFICATION_TYPE": "U",
    "NORAD_CAT_ID": 58156,
    "ELEMENT_SET_NO": 999,
    "REV_AT_EPOCH": 11489,
    "BSTAR": 0.00011423,
    "MEAN_MOTION_DOT": 3.026e-05,
    "MEAN_MOTION_DDOT": 0.0,
    "TLE_LINE1": "1 58156U 23166G   25315.26712456  .00003026  00000+0  11423-3 0  9996",
    "TLE_LINE2": "2 58156  53.1623  49.9927 0001274  82.1997 277.9148 15.30204731114894",
    "COMMENT": "Grouped by shell and plane from TLE"
  },
  {
    "OBJECT_NAME": "STARLINK-30803",
    "OBJECT_ID": "23166H",
    "EPOCH": "2025-11-11T05:51:13.967424",
    "MEAN_MOTION": 15.30198173,
    "ECCENTRICITY": 4.17e-05,
    "INCLINATION": 53.1642,
    "RA_OF_ASC_NODE": 49.8438,
    "ARG_OF_PERICENTER": 92.3627,
    "MEAN_ANOMALY": 267.7422,
    "EPHEMERIS_TYPE": 0,
    "CLASSIFICATION_TYPE": "U",
    "NORAD_CAT_ID": 58157,
    "ELEMENT_SET_NO": 999,
    "REV_AT_EPOCH": 11489,
    "BSTAR": 5.6702e-05,
    "MEAN_MOTION_DOT": 1.321e-05,
    "MEAN_MOTION_DDOT": 0.0,
    "TLE_LINE1": "1 58157U 23166H   25315.24391166  .00001321  00000+0  56702-4 0  9992",
    "TLE_LINE2": "2 58157  53.1642  49.8438 0000417  92.3627 267.7422 15.30198173114897",
    "COMMENT": "Grouped by shell and plane from TLE"
  },
  {
    "OBJECT_NAME": "STARLINK-30829",
    "OBJECT_ID": "23166J",
    "EPOCH": "2025-11-11T06:15:33.096672",
    "MEAN_MOTION": 15.30192833,
    "ECCENTRICITY": 0.0001499,
    "INCLINATION": 53.166,
    "RA_OF_ASC_NODE": 49.9641,
    "ARG_OF_PERICENTER": 64.3173,
    "MEAN_ANOMALY": 295.7982,
    "EPHEMERIS_TYPE": 0,
    "CLASSIFICATION_TYPE": "U",
    "NORAD_CAT_ID": 58158,
    "ELEMENT_SET_NO": 999,
    "REV_AT_EPOCH": 11504,
    "BSTAR": 5.4793e-05,
    "MEAN_MOTION_DOT": 1.263e-05,
    "MEAN_MOTION_DDOT": 0.0,
    "TLE_LINE1": "1 58158U 23166J   25315.26079973  .00001263  00000+0  54793-4 0  9997",
    "TLE_LINE2": "2 58158  53.1660  49.9641 0001499  64.3173 295.7982 15.30192833115048",
    "COMMENT": "Grouped by shell and plane from TLE"
  },
  {
    "OBJECT_NAME": "STARLINK-30788",
    "OBJECT_ID": "23166K",
    "EPOCH": "2025-11-11T06:06:27.505728",
    "MEAN_MOTION": 15.3017096,
    "ECCENTRICITY": 0.0001037,
    "INCLINATION": 53.1645,
    "RA_OF_ASC_NODE": 49.9269,
    "ARG_OF_PERICENTER": 103.9433,
    "MEAN_ANOMALY": 256.1684,
    "EPHEMERIS_TYPE": 0,
    "CLASSIFICATION_TYPE": "U",
    "NORAD_CAT_ID": 58159,
    "ELEMENT_SET_NO": 999,
    "REV_AT_EPOCH": 11489,
    "BSTAR": 0.00055876,
    "MEAN_MOTION_DOT": 0.00016211,
    "MEAN_MOTION_DDOT": 0.0,
    "TLE_LINE1": "1 58159U 23166K   25315.25448502  .00016211  00000+0  55876-3 0  9996",
    "TLE_LINE2": "2 58159  53.1645  49.9269 0001037 103.9433 256.1684 15.30170960114894",
    "COMMENT": "Grouped by shell and plane from TLE"
  },
  {
    "OBJECT_NAME": "STARLINK-30779",
    "OBJECT_ID": "23166L",
    "EPOCH": "2025-11-11T06:00:23.455872",
    "MEAN_MOTION": 15.30173439,
    "ECCENTRICITY": 0.0001227,
    "INCLINATION": 53.1628,
    "RA_OF_ASC_NODE": 49.8986,
    "ARG_OF_PERICENTER": 97.2235,
    "MEAN_ANOMALY": 262.8906,
    "EPHEMERIS_TYPE": 0,
    "CLASSIFICATION_TYPE": "U",
    "NORAD_CAT_ID": 58160,
    "ELEMENT_SET_NO": 999,
    "REV_AT_EPOCH": 11504,
    "BSTAR": 4.5368e-06,
    "MEAN_MOTION_DOT": -2.25e-06,
    "MEAN_MOTION_DDOT": 0.0,
    "TLE_LINE1": "1 58160U 23166L   25315.25027148 -.00000225  00000+0  45368-5 0  9993",
    "TLE_LINE2": "2 58160  53.1628  49.8986 0001227  97.2235 262.8906 15.30173439115041",
    "COMMENT": "Grouped by shell and plane from TLE"
  },
  {
    "OBJECT_NAME": "STARLINK-30773",
    "OBJECT_ID": "23166M",
    "EPOCH": "2025-11-11T05:37:32.364768",
    "MEAN_MOTION": 15.30191091,
    "ECCENTRICITY": 6.31e-05,
    "INCLINATION": 53.1608,
    "RA_OF_ASC_NODE": 49.7816,
    "ARG_OF_PERICENTER": 91.8951,
    "MEAN_ANOMALY": 268.2122,
    "EPHEMERIS_TYPE": 0,
    "CLASSIFICATION_TYPE": "U",
    "NORAD_CAT_ID": 58161,
    "ELEMENT_SET_NO": 999,
    "REV_AT_EPOCH": 11504,
    "BSTAR": 0.00024547,
    "MEAN_MOTION_DOT": 6.916e-05,
    "MEAN_MOTION_DDOT": 0.0,
    "TLE_LINE1": "1 58161U 23166M   25315.23440237  .00006916  00000+0  24547-3 0  9996",
    "TLE_LINE2": "2 58161  53.1608  49.7816 0000631  91.8951 268.2122 15.30191091115048",
    "COMMENT": "Grouped by shell and plane from TLE"
  },
  {
    "OBJECT_NAME": "STARLINK-30816",
    "OBJECT_ID": "23166N",
    "EPOCH": "2025-11-11T07:07:03.135648",
    "MEAN_MOTION": 15.30196574,
    "ECCENTRICITY": 9.25e-05,
    "INCLINATION": 53.163,
    "RA_OF_ASC_NODE": 49.4801,
    "ARG_OF_PERICENTER": 54.2378,
    "MEAN_ANOMALY": 305.8709,
    "EPHEMERIS_TYPE": 0,
    "CLASSIFICATION_TYPE": "U",
    "NORAD_CAT_ID": 58162,
    "ELEMENT_SET_NO": 999,
    "REV_AT_EPOCH": 11505,
    "BSTAR": 0.00011947,
    "MEAN_MOTION_DOT": 3.181e-05,
    "MEAN_MOTION_DDOT": 0.0,
    "TLE_LINE1": "1 58162U 23166N   25315.29656407  .00003181  00000+0  11947-3 0  9992",
    "TLE_LINE2": "2 58162  53.1630  49.4801 0000925  54.2378 305.8709 15.30196574115058",
    "COMMENT": "Grouped by shell and plane from TLE"
  },
  {
    "OBJECT_NAME": "STARLINK-30763",
    "OBJECT_ID": "23166P",
    "EPOCH": "2025-11-10T14:02:21.319872",
    "MEAN_MOTION": 15.30196799,
    "ECCENTRICITY": 0.0001439,
    "INCLINATION": 53.1616,
    "RA_OF_ASC_NODE": 40.2722,
    "ARG_OF_PERICENTER": 105.4266,
    "MEAN_ANOMALY": 254.6894,
    "EPHEMERIS_TYPE": 0,
    "CLASSIFICATION_TYPE": "U",
    "NORAD_CAT_ID": 58163,
    "ELEMENT_SET_NO": 999,
    "REV_AT_EPOCH": 11511,
    "BSTAR": 5.160900000000001e-05,
    "MEAN_MOTION_DOT": 1.169e-05,
    "MEAN_MOTION_DDOT": 0.0,
    "TLE_LINE1": "1 58163U 23166P   25314.58496898  .00001169  00000+0  51609-4 0  9994",
    "TLE_LINE2": "2 58163  53.1616  40.2722 0001439 105.4266 254.6894 15.30196799115112",
    "COMMENT": "Grouped by shell and plane from TLE"
  },
  {
    "OBJECT_NAME": "STARLINK-30815",
    "OBJECT_ID": "23166Q",
    "EPOCH": "2025-11-11T07:20:43.991808",
    "MEAN_MOTION": 15.30199967,
    "ECCENTRICITY": 8.5e-05,
    "INCLINATION": 53.1632,
    "RA_OF_ASC_NODE": 49.5447,
    "ARG_OF_PERICENTER": 41.5738,
    "MEAN_ANOMALY": 318.5327,
    "EPHEMERIS_TYPE": 0,
    "CLASSIFICATION_TYPE": "U",
    "NORAD_CAT_ID": 58164,
    "ELEMENT_SET_NO": 999,
    "REV_AT_EPOCH": 11505,
    "BSTAR": 2.226e-05,
    "MEAN_MOTION_DOT": 3e-06,
    "MEAN_MOTION_DDOT": 0.0,
    "TLE_LINE1": "1 58164U 23166Q   25315.30606472  .00000300  00000+0  22260-4 0  9994",
    "TLE_LINE2": "2 58164  53.1632  49.5447 0000850  41.5738 318.5327 15.30199967115051",
    "COMMENT": "Grouped by shell and plane from TLE"
  },
  {
    "OBJECT_NAME": "STARLINK-30814",
    "OBJECT_ID": "23166R",
    "EPOCH": "2025-11-11T06:38:11.141376",
    "MEAN_MOTION": 15.30192644,
    "ECCENTRICITY": 0.0001587,
    "INCLINATION": 53.1611,
    "RA_OF_ASC_NODE": 49.3545,
    "ARG_OF_PERICENTER": 97.7468,
    "MEAN_ANOMALY": 262.3714,
    "EPHEMERIS_TYPE": 0,
    "CLASSIFICATION_TYPE": "U",
    "NORAD_CAT_ID": 58165,
    "ELEMENT_SET_NO": 999,
    "REV_AT_EPOCH": 11505,
    "BSTAR": 8.2468e-05,
    "MEAN_MOTION_DOT": 2.083e-05,
    "MEAN_MOTION_DDOT": 0.0,
    "TLE_LINE1": "1 58165U 23166R   25315.27651784  .00002083  00000+0  82468-4 0  9993",
    "TLE_LINE2": "2 58165  53.1611  49.3545 0001587  97.7468 262.3714 15.30192644115058",
    "COMMENT": "Grouped by shell and plane from TLE"
  },
  {
    "OBJECT_NAME": "STARLINK-30789",
    "OBJECT_ID": "23166S",
    "EPOCH": "2025-11-11T05:42:07.208352",
    "MEAN_MOTION": 15.30192631,
    "ECCENTRICITY": 7.25e-05,
    "INCLINATION": 53.1617,
    "RA_OF_ASC_NODE": 49.8228,
    "ARG_OF_PERICENTER": 77.5047,
    "MEAN_ANOMALY": 282.6034,
    "EPHEMERIS_TYPE": 0,
    "CLASSIFICATION_TYPE": "U",
    "NORAD_CAT_ID": 58166,
    "ELEMENT_SET_NO": 999,
    "REV_AT_EPOCH": 11504,
    "BSTAR": 0.00011077,
    "MEAN_MOTION_DOT": 2.922e-05,
    "MEAN_MOTION_DDOT": 0.0,
    "TLE_LINE1": "1 58166U 23166S   25315.23758343  .00002922  00000+0  11077-3 0  9998",
    "TLE_LINE2": "2 58166  53.1617  49.8228 0000725  77.5047 282.6034 15.30192631115045",
    "COMMENT": "Grouped by shell and plane from TLE"
  },
  {
    "OBJECT_NAME": "STARLINK-30811",
    "OBJECT_ID": "23166T",
    "EPOCH": "2025-11-11T06:47:17.458944",
    "MEAN_MOTION": 15.30203771,
    "ECCENTRICITY": 0.0001096,
    "INCLINATION": 53.1606,
    "RA_OF_ASC_NODE": 49.3916,
    "ARG_OF_PERICENTER": 67.545,
    "MEAN_ANOMALY": 292.5667,
    "EPHEMERIS_TYPE": 0,
    "CLASSIFICATION_TYPE": "U",
    "NORAD_CAT_ID": 58167,
    "ELEMENT_SET_NO": 999,
    "REV_AT_EPOCH": 11490,
    "BSTAR": 0.00010803000000000001,
    "MEAN_MOTION_DOT": 2.842e-05,
    "MEAN_MOTION_DDOT": 0.0,
    "TLE_LINE1": "1 58167U 23166T   25315.28284096  .00002842  00000+0  10803-3 0  9990",
    "TLE_LINE2": "2 58167  53.1606  49.3916 0001096  67.5450 292.5667 15.30203771114906",
    "COMMENT": "Grouped by shell and plane from TLE"
  }
]